NORAD_CAT_ID,OBJECT_NAME,OBJECT_TYPE,EPOCH,MEAN_MOTION,ECCENTRICITY,INCLINATION,RA_OF_ASC_NODE,ARG_OF_PERICENTER,MEAN_ANOMALY,BSTAR,MEAN_MOTION_DOT,MEAN_MOTION_DDOT,TLE_LINE0,TLE_LINE1,TLE_LINE2,SEMIMAJOR_AXIS,PERIOD,APOGEE,PERIGEE,DECAYED
49449.0,STARLINK-3137,PAYLOAD,2022-01-11 22:00:00,15.60062771,0.000173,53.2177,199.5654,30.9729,340.2153,-0.0086485,-0.00658604,0.0,0 STARLINK-3137,1 49449U 21104AT  22011.91667824 -.00658604  00000-0 -86485-2 0  9991,2 49449  53.2177 199.5654 0001730  30.9729 340.2153 15.60062771  3676,6765.613,92.304,388.648,386.307,0.0
49449.0,STARLINK-3137,PAYLOAD,2022-01-12 14:00:01,15.5912856,0.0001915,53.2178,196.3312,32.5553,123.789,-0.0089244,-0.00655951,0.0,0 STARLINK-3137,1 49449U 21104AT  22012.58334491 -.00655951  00000-0 -89244-2 0  9994,2 49449  53.2178 196.3312 0001915  32.5553 123.7890 15.59128560  3704,6768.315,92.359,391.476,388.884,0.0
49449.0,STARLINK-3137,PAYLOAD,2022-01-12 16:00:00,15.59012485,0.0001821,53.2178,195.9281,34.3089,230.0216,-0.0089794,-0.00656972,0.0,0 STARLINK-3137,1 49449U 21104AT  22012.66667824 -.00656972  00000-0 -89794-2 0  9996,2 49449  53.2178 195.9281 0001821  34.3089 230.0216 15.59012485 10748,6768.651,92.366,391.74800000000016,389.283,0.0
49449.0,STARLINK-3137,PAYLOAD,2022-01-13 14:00:01,15.57731614,0.0001674,53.2176,191.4911,32.0569,337.8138,-0.0094818,-0.00660476,0.0,0 STARLINK-3137,1 49449U 21104AT  22013.58334491 -.00660476  00000-0 -94818-2 0  9996,2 49449  53.2176 191.4911 0001674  32.0569 337.8138 15.57731614  3719,6772.361,92.442,395.359,393.092,0.0
49449.0,STARLINK-3137,PAYLOAD,2022-01-13 22:00:00,15.57259838,0.0001588,53.2173,189.8817,37.1579,42.7683,-0.0095199,-0.00652107,0.0,0 STARLINK-3137,1 49449U 21104AT  22013.91667824 -.00652107  00000-0 -95199-2 0  9997,2 49449  53.2173 189.8817 0001588  37.1579  42.7683 15.57259838 10935,6773.729,92.47,396.669,394.518,0.0
49449.0,STARLINK-3137,PAYLOAD,2022-01-14 14:00:01,15.56329364,0.0001766,53.2176,186.6612,38.9657,179.3875,-0.0099199,-0.0065592,0.0,0 STARLINK-3137,1 49449U 21104AT  22014.58334491 -.00655920  00000-0 -99199-2 0  9992,2 49449  53.2176 186.6612 0001766  38.9657 179.3875 15.56329364  3685,6776.428000000001,92.525,399.49,397.096,0.0
49449.0,STARLINK-3137,PAYLOAD,2022-01-14 22:00:00,15.55861014,0.0001653,53.2175,185.0549,38.46,248.2654,-0.010041,-0.00652677,0.0,0 STARLINK-3137,1 49449U 21104AT  22014.91667824 -.00652677  00000-0 -10041-1 0  9992,2 49449  53.2175 185.0549 0001653  38.4600 248.2654 15.55861014 11091,6777.788000000001,92.553,400.773,398.533,0.0
49449.0,STARLINK-3137,PAYLOAD,2022-01-15 14:00:01,15.54931562,0.0001836,53.2177,181.8415,28.7623,33.0909,-0.010507,-0.006593,0.0,0 STARLINK-3137,1 49449U 21104AT  22015.58335648 -.00659300  00000-0 -10507-1 0  9999,2 49449  53.2177 181.8415 0001836  28.7623  33.0909 15.54931562  3694,6780.489000000001,92.609,403.598,401.109,0.0
49449.0,STARLINK-3137,PAYLOAD,2022-01-15 22:00:01,15.54459488,0.0001673,53.2173,180.2383,37.8238,90.7213,-0.010523,-0.00649666,0.0,0 STARLINK-3137,1 49449U 21104AT  22015.91668981 -.00649666  00000-0 -10523-1 0  9997,2 49449  53.2173 180.2383 0001673  37.8238  90.7213 15.54459488 11250,6781.861,92.637,404.861,402.592,0.0
49449.0,STARLINK-3137,PAYLOAD,2022-01-16 14:00:01,15.53530274,0.0001977,53.2175,177.0317,31.5591,228.62,-0.011004,-0.00656102,0.0,0 STARLINK-3137,1 49449U 21104AT  22016.58334491 -.00656102  00000-0 -11004-1 0  9995,2 49449  53.2175 177.0317 0001977  31.5591 228.6200 15.53530274  3692,6784.565,92.692,407.772,405.089,0.0
49449.0,STARLINK-3137,PAYLOAD,2022-01-16 22:00:00,15.53062533,0.0001456,53.2173,175.43200000000004,43.3263,281.8611,-0.011146,-0.00653447,0.0,0 STARLINK-3137,1 49449U 21104AT  22016.91667824 -.00653447  00000-0 -11146-1 0  9997,2 49449  53.2173 175.4320 0001456  43.3263 281.8611 15.53062533  3690,6785.927,92.72,408.78,406.804,0.0
49449.0,STARLINK-3137,PAYLOAD,2022-01-17 00:00:00,15.52947355,0.0001537,53.217,175.0315,38.3657,32.9861,-0.011241,-0.00656053,0.0,0 STARLINK-3137,1 49449U 21104AT  22017.00001157 -.00656053  00000-0 -11241-1 0  9991,2 49449  53.2170 175.0315 0001537  38.3657  32.9861 15.52947355 11412,6786.263000000001,92.727,409.171,407.085,0.0
49449.0,STARLINK-3137,PAYLOAD,2022-01-17 14:00:01,15.52130981,0.0001786999999999,53.2174,172.2323,33.0872,60.4362,-0.011595,-0.00656924,0.0,0 STARLINK-3137,1 49449U 21104AT  22017.58334491 -.00656924  00000-0 -11595-1 0  9993,2 49449  53.2174 172.2323 0001787  33.0872  60.4362 15.52130981  3706,6788.642,92.776,411.72,409.294,0.0
49449.0,STARLINK-3137,PAYLOAD,2022-01-17 22:00:00,15.51662042,0.0001659,53.2172,170.6356,40.4949,116.3555,-0.011705,-0.00652374,0.0,0 STARLINK-3137,1 49449U 21104AT  22017.91667824 -.00652374  00000-0 -11705-1 0  9997,2 49449  53.2172 170.6356 0001659  40.4949 116.3555 15.51662042  3697,6790.01,92.804,413.002,410.749,0.0
49449.0,STARLINK-3137,PAYLOAD,2022-01-18 06:00:00,15.51195675,0.0001857,53.2174,169.0369,34.7909,184.827,-0.011906,-0.00652549,0.0,0 STARLINK-3137,1 49449U 21104AT  22018.25001157 -.00652549  00000-0 -11906-1 0  9993,2 49449  53.2174 169.0369 0001857  34.7909 184.8270 15.51195675 11615,6791.371,92.832,414.497,411.975,0.0
49449.0,STARLINK-3137,PAYLOAD,2022-01-18 14:00:01,15.50730534,0.0001898,53.2176,167.4427,32.6606,249.1617,-0.012158,-0.00655125,0.0,0 STARLINK-3137,1 49449U 21104AT  22018.58334491 -.00655125  00000-0 -12158-1 0  9992,2 49449  53.2176 167.4427 0001898  32.6606 249.1617 15.50730534  3686,6792.729,92.859,415.883,413.305,0.0
49449.0,STARLINK-3137,PAYLOAD,2022-01-18 22:00:00,15.50264536,0.0001474,53.2173,165.8492,41.1647,302.3016,-0.012363,-0.00655096,0.0,0 STARLINK-3137,1 49449U 21104AT  22018.91667824 -.00655096  00000-0 -12363-1 0  9993,2 49449  53.2173 165.8492 0001474  41.1647 302.3016 15.50264536  3686,6794.09,92.887,416.957,414.954,0.0
49449.0,STARLINK-3137,PAYLOAD,2022-01-19 06:00:02,15.49750454,0.000195,53.2173,164.2539,23.5305,21.1088,-0.011229,-0.00589238,0.0,0 STARLINK-3137,1 49449U 21104AT  22019.25002315 -.00589238  00000-0 -11229-1 0  9993,2 49449  53.2173 164.2539 0001950  23.5305  21.1088 15.49750454 11765,6795.592,92.918,418.783,416.132,0.0
49449.0,STARLINK-3137,PAYLOAD,2022-01-19 14:00:01,15.49136747,0.0001501,53.2173,162.6624,34.0916,71.0539,-0.0047195,-0.00253072,0.0,0 STARLINK-3137,1 49449U 21104AT  22019.58334491 -.00253072  00000-0 -47195-2 0  9998,2 49449  53.2173 162.6624 0001501  34.0916  71.0539 15.49136747  3667,6797.387,92.955,420.272,418.232,0.0
49449.0,STARLINK-3137,PAYLOAD,2022-01-19 22:00:00,15.48949254,0.0001629999999999,53.2171,161.0726,41.5405,123.5088,-4.0927e-05,-2.693e-05,0.0,0 STARLINK-3137,1 49449U 21104AT  22019.91667824 -.00002693  00000-0 -40927-4 0  9993,2 49449  53.2171 161.0726 0001630  41.5405 123.5088 15.48949254 11878,6797.936,92.966,420.909,418.693,0.0
49449.0,STARLINK-3137,PAYLOAD,2022-01-20 14:00:01,15.49214402,0.000173,53.2159,157.889,44.1757,240.5724,-0.0084427,-0.00442895,0.0,0 STARLINK-3137,1 49449U 21104AT  22020.58334491 -.00442895  00000-0 -84427-2 0  9992,2 49449  53.2159 157.8890 0001730  44.1757 240.5724 15.49214402 11978,6797.16,92.95,420.201,417.849,0.0
49449.0,STARLINK-3137,PAYLOAD,2022-01-20 22:00:00,15.48734134,0.0001720999999999,53.2165,156.2998,44.6341,300.082,-0.0040534,-0.00215392,0.0,0 STARLINK-3137,1 49449U 21104AT  22020.91667824 -.00215392  00000-0 -40534-2 0  9999,2 49449  53.2165 156.2998 0001721  44.6341 300.0820 15.48734134 12025,6798.565,92.979,421.6,419.26,0.0
49449.0,STARLINK-3137,PAYLOAD,2022-01-21 08:00:01,15.48500983,0.0001758,53.2174,154.3105,38.6874,110.3114,-0.013142,-0.00654277,0.0,0 STARLINK-3137,1 49449U 21104AT  22021.33334491 -.00654277  00000-0 -13142-1 0  9990,2 49449  53.2174 154.3105 0001758  38.6874 110.3114 15.48500983 12096,6799.248000000001,92.993,422.3080000000001,419.917,0.0
49449.0,STARLINK-3137,PAYLOAD,2022-01-21 14:00:01,15.48100688,0.0001341999999999,53.2172,153.1198,16.3204,86.8706,-0.011912,-0.00589587,0.0,0 STARLINK-3137,1 49449U 21104AT  22021.58334491 -.00589587  00000-0 -11912-1 0  9991,2 49449  53.2172 153.1198 0001342  16.3204  86.8706 15.48100688 12139,6800.42,93.017,423.197,421.372,0.0
49449.0,STARLINK-3137,PAYLOAD,2022-01-21 22:00:00,15.47685483,0.0001681,53.2172,151.5324,40.3994,121.309,-0.013563,-0.00656008,0.0,0 STARLINK-3137,1 49449U 21104AT  22021.91667824 -.00656008  00000-0 -13563-1 0  9994,2 49449  53.2172 151.5324 0001681  40.3994 121.3090 15.47685483  3682,6801.636,93.042,424.644,422.357,0.0
49449.0,STARLINK-3137,PAYLOAD,2022-01-22 06:00:00,15.47218246,0.0001696999999999,53.2173,149.9436,42.8384,176.8566,-0.013763,-0.00654983,0.0,0 STARLINK-3137,1 49449U 21104AT  22022.25001157 -.00654983  00000-0 -13763-1 0  9995,2 49449  53.2173 149.9436 0001697  42.8384 176.8566 15.47218246 12238,6803.005,93.07,426.024,423.716,0.0
49449.0,STARLINK-3137,PAYLOAD,2022-01-22 14:00:01,15.46657512,0.0001631999999999,53.2175,148.3587,50.08,227.0877,-0.011123,-0.00527706,0.0,0 STARLINK-3137,1 49449U 21104AT  22022.58334491 -.00527706  00000-0 -11123-1 0  9991,2 49449  53.2175 148.3587 0001632  50.0800 227.0877 15.46657512  3655,6804.649,93.104,427.625,425.404,0.0
49449.0,STARLINK-3137,PAYLOAD,2022-01-22 22:00:00,15.46286839,0.0001421,53.2173,146.7746,46.4249,287.557,-0.014272,-0.00657307,0.0,0 STARLINK-3137,1 49449U 21104AT  22022.91667824 -.00657307  00000-0 -14272-1 0  9996,2 49449  53.2173 146.7746 0001421  46.4249 287.5570 15.46286839  3677,6805.736999999999,93.126,428.569,426.634,0.0
49449.0,STARLINK-3137,PAYLOAD,2022-01-23 14:00:01,15.45352721,0.0002077,53.2175,143.6088,26.8343,59.194,-0.014706,-0.00655998,0.0,0 STARLINK-3137,1 49449U 21104AT  22023.58334491 -.00655998  00000-0 -14706-1 0  9997,2 49449  53.2175 143.6088 0002077  26.8343  59.1940 15.45352721 12430,6808.479,93.183,431.758,428.93,0.0
